STARLINK-1494           
1 45760U 20038AG  26068.49716211  .00096828  00000+0  67102-3 0  9999
2 45760  53.0480 152.5788 0005412   2.9213 357.1836 15.73709706317367
STARLINK-11709 [DTC]    
1 64065U 25107B   26068.10648854  .00242303  00000+0  18271-2 0  9998
2 64065  42.9985 101.9897 0001254 211.4021 148.6772 15.70972018 47206
