[{"OBJECT_NAME":"STARLINK-1494","OBJECT_ID":"2020-038AG","EPOCH":"2026-03-09T11:55:54.806304","MEAN_MOTION":15.73709706,"ECCENTRICITY":0.00054124,"INCLINATION":53.048,"RA_OF_ASC_NODE":152.5788,"ARG_OF_PERICENTER":2.9213,"MEAN_ANOMALY":357.1836,"EPHEMERIS_TYPE":0,"CLASSIFICATION_TYPE":"U","NORAD_CAT_ID":45760,"ELEMENT_SET_NO":999,"REV_AT_EPOCH":31736,"BSTAR":0.00067102324,"MEAN_MOTION_DOT":0.00096828,"MEAN_MOTION_DDOT":0},{"OBJECT_NAME":"STARLINK-11709 [DTC]","OBJECT_ID":"2025-107B","EPOCH":"2026-03-09T02:33:20.609856","MEAN_MOTION":15.70972018,"ECCENTRICITY":0.00012549,"INCLINATION":42.9985,"RA_OF_ASC_NODE":101.9897,"ARG_OF_PERICENTER":211.4021,"MEAN_ANOMALY":148.6772,"EPHEMERIS_TYPE":0,"CLASSIFICATION_TYPE":"U","NORAD_CAT_ID":64065,"ELEMENT_SET_NO":999,"REV_AT_EPOCH":4720,"BSTAR":0.001827147,"MEAN_MOTION_DOT":0.00242303,"MEAN_MOTION_DDOT":0}]
